{"type": "FeatureCollection", "features": [ {"type": "Feature", "properties": {"norad_id": 54234, "name": "NOAA 21 (JPSS-2)", "group": "weather", "lat": 26.2806051953465, "lon": 105.97926153791879, "alt_km": 826.6056282230893, "timestamp": "2025-12-11T07:02:23.376586+00:00", "meta": {"OBJECT_NAME": "NOAA 21 (JPSS-2)", "OBJECT_ID": "2022-150A", "EPOCH": "2025-12-10T21:51:43.121664", "MEAN_MOTION": 14.19523435, "ECCENTRICITY": 0.00022802, "INCLINATION": 98.746, "RA_OF_ASC_NODE": 281.242, "ARG_OF_PERICENTER": 41.4854, "MEAN_ANOMALY": 318.6495, "EPHEMERIS_TYPE": 0, "CLASSIFICATION_TYPE": "U", "NORAD_CAT_ID": 54234, "ELEMENT_SET_NO": 999, "REV_AT_EPOCH": 15983, "BSTAR": 0.00010226591, "MEAN_MOTION_DOT": 1.72e-06, "MEAN_MOTION_DDOT": 0}, "tle": {"line1": "1 54234U 22150A   25344.91091576  .00000172  00000+0  10227-3 0  9998", "line2": "2 54234  98.7460 281.2420 0002280  41.4854 318.6495 14.19523435159830"}}, "geometry": {"type": "Point", "coordinates": [105.97926153791879, 26.2806051953465]}}, {"type": "Feature", "properties": {"norad_id": 54743, "name": "METEOSAT-12 (MTG-I1)", "group": "weather", "lat": 0.20050693273999257, "lon": -174.40748147313099, "alt_km": 35784.85542735328, "timestamp": "2025-12-11T07:02:23.376598+00:00", "meta": {"OBJECT_NAME": "METEOSAT-12 (MTG-I1)", "OBJECT_ID": "2022-170C", "EPOCH": "2025-12-10T21:43:38.678592", "MEAN_MOTION": 1.00268433, "ECCENTRICITY": 0.00018228, "INCLINATION": 0.6851, "RA_OF_ASC_NODE": 23.301, "ARG_OF_PERICENTER": 236.3072, "MEAN_ANOMALY": 145.9424, "EPHEMERIS_TYPE": 0, "CLASSIFICATION_TYPE": "U", "NORAD_CAT_ID": 54743, "ELEMENT_SET_NO": 999, "REV_AT_EPOCH": 1109, "BSTAR": 0, "MEAN_MOTION_DOT": -2e-08, "MEAN_MOTION_DDOT": 0}, "tle": {"line1": "1 54743U 22170C   25344.90530878 -.00000002  00000+0  00000+0 0  9994", "line2": "2 54743   0.6851  23.3010 0001822 236.3072 145.9424  1.00268433 11097"}}, "geometry": {"type": "Point", "coordinates": [-174.40748147313099, 0.20050693273999257]}}, {"type": "Feature", "properties": {"norad_id": 55973, "name": "TIANMU-1 03", "group": "weather", "lat": 11.676608011267717, "lon": -30.533253281506063, "alt_km": 445.7421297169831, "timestamp": "2025-12-11T07:02:23.376609+00:00", "meta": {"OBJECT_NAME": "TIANMU-1 03", "OBJECT_ID": "2023-039A", "EPOCH": "2025-12-10T20:57:41.030784", "MEAN_MOTION": 15.40834061, "ECCENTRICITY": 0.00044427, "INCLINATION": 97.5111, "RA_OF_ASC_NODE": 147.4727, "ARG_OF_PERICENTER": 66.626, "MEAN_ANOMALY": 293.5453, "EPHEMERIS_TYPE": 0, "CLASSIFICATION_TYPE": "U", "NORAD_CAT_ID": 55973, "ELEMENT_SET_NO": 999, "REV_AT_EPOCH": 15177, "BSTAR": 0.00054207, "MEAN_MOTION_DOT": 0.00022185, "MEAN_MOTION_DDOT": 0}, "tle": {"line1": "1 55973U 23039A   25344.87339156  .00022185  00000+0  54207-3 0  9994", "line2": "2 55973  97.5111 147.4727 0004442  66.6260 293.5453 15.40834061151771"}}, "geometry": {"type": "Point", "coordinates": [-30.533253281506063, 11.676608011267717]}}, {"type": "Feature", "properties": {"norad_id": 55974, "name": "TIANMU-1 04", "group": "weather", "lat": -77.35144866108433, "lon": -176.9312424768709, "alt_km": 452.6436448409604, "timestamp": "2025-12-11T07:02:23.376622+00:00", "meta": {"OBJECT_NAME": "TIANMU-1 04", "OBJECT_ID": "2023-039B", "EPOCH": "2025-12-10T22:02:10.110912", "MEAN_MOTION": 15.41171338, "ECCENTRICITY": 0.00051228, "INCLINATION": 97.5043, "RA_OF_ASC_NODE": 146.7106, "ARG_OF_PERICENTER": 61.9533, "MEAN_ANOMALY": 298.2231, "EPHEMERIS_TYPE": 0, "CLASSIFICATION_TYPE": "U", "NORAD_CAT_ID": 55974, "ELEMENT_SET_NO": 999, "REV_AT_EPOCH": 15178, "BSTAR": 0.00052783147, "MEAN_MOTION_DOT": 0.00021844, "MEAN_MOTION_DDOT": 0}, "tle": {"line1": "1 55974U 23039B   25344.91817258  .00021844  00000+0  52783-3 0  9992", "line2": "2 55974  97.5043 146.7106 0005122  61.9533 298.2231 15.41171338151785"}}, "geometry": {"type": "Point", "coordinates": [-176.9312424768709, -77.35144866108433]}}, {"type": "Feature", "properties": {"norad_id": 55975, "name": "TIANMU-1 05", "group": "weather", "lat": -45.48815136744326, "lon": 155.29904607233885, "alt_km": 452.3623886351925, "timestamp": "2025-12-11T07:02:23.376633+00:00", "meta": {"OBJECT_NAME": "TIANMU-1 05", "OBJECT_ID": "2023-039C", "EPOCH": "2025-12-10T20:19:43.112928", "MEAN_MOTION": 15.4079102, "ECCENTRICITY": 0.00043632, "INCLINATION": 97.509, "RA_OF_ASC_NODE": 147.1298, "ARG_OF_PERICENTER": 83.6668, "MEAN_ANOMALY": 276.5075, "EPHEMERIS_TYPE": 0, "CLASSIFICATION_TYPE": "U", "NORAD_CAT_ID": 55975, "ELEMENT_SET_NO": 999, "REV_AT_EPOCH": 15175, "BSTAR": 0.00051698406, "MEAN_MOTION_DOT": 0.00021121, "MEAN_MOTION_DDOT": 0}, "tle": {"line1": "1 55975U 23039C   25344.84702677  .00021121  00000+0  51698-3 0  9995", "line2": "2 55975  97.5090 147.1298 0004363  83.6668 276.5075 15.40791020151758"}}, "geometry": {"type": "Point", "coordinates": [155.29904607233885, -45.48815136744326]}}, {"type": "Feature", "properties": {"norad_id": 55976, "name": "TIANMU-1 06", "group": "weather", "lat": -82.20833561056803, "lon": -106.5509770398114, "alt_km": 452.9682235618411, "timestamp": "2025-12-11T07:02:23.376643+00:00", "meta": {"OBJECT_NAME": "TIANMU-1 06", "OBJECT_ID": "2023-039D", "EPOCH": "2025-12-10T22:05:23.322912", "MEAN_MOTION": 15.41224056, "ECCENTRICITY": 0.00046976, "INCLINATION": 97.51, "RA_OF_ASC_NODE": 147.6688, "ARG_OF_PERICENTER": 78.9648, "MEAN_ANOMALY": 281.2126, "EPHEMERIS_TYPE": 0, "CLASSIFICATION_TYPE": "U", "NORAD_CAT_ID": 55976, "ELEMENT_SET_NO": 999, "REV_AT_EPOCH": 15178, "BSTAR": 0.00052796376, "MEAN_MOTION_DOT": 0.00021887, "MEAN_MOTION_DDOT": 0}, "tle": {"line1": "1 55976U 23039D   25344.92040883  .00021887  00000+0  52796-3 0  9998", "line2": "2 55976  97.5100 147.6688 0004697  78.9648 281.2126 15.41224056151788"}}, "geometry": {"type": "Point", "coordinates": [-106.5509770398114, -82.20833561056803]}}, {"type": "Feature", "properties": {"norad_id": 56232, "name": "FENGYUN 3G", "group": "weather", "lat": -49.94528176062792, "lon": 147.45033414645718, "alt_km": 414.94903614804934, "timestamp": "2025-12-11T07:02:23.376654+00:00", "meta": {"OBJECT_NAME": "FENGYUN 3G", "OBJECT_ID": "2023-055A", "EPOCH": "2025-12-10T22:09:26.680608", "MEAN_MOTION": 15.53467964, "ECCENTRICITY": 0.00092928, "INCLINATION": 49.9931, "RA_OF_ASC_NODE": 236.8282, "ARG_OF_PERICENTER": 139.9753, "MEAN_ANOMALY": 220.1901, "EPHEMERIS_TYPE": 0, "CLASSIFICATION_TYPE": "U", "NORAD_CAT_ID": 56232, "ELEMENT_SET_NO": 999, "REV_AT_EPOCH": 15074, "BSTAR": 0.00068245457, "MEAN_MOTION_DOT": 0.00044011, "MEAN_MOTION_DDOT": 0}, "tle": {"line1": "1 56232U 23055A   25344.92322547  .00044011  00000+0  68245-3 0  9992", "line2": "2 56232  49.9931 236.8282 0009292 139.9753 220.1901 15.53467964150747"}}, "geometry": {"type": "Point", "coordinates": [147.45033414645718, -49.94528176062792]}}, {"type": "Feature", "properties": {"norad_id": 57166, "name": "METEOR-M2 3", "group": "weather", "lat": 35.888704501048515, "lon": 32.54304815438197, "alt_km": 806.6119045293672, "timestamp": "2025-12-11T07:02:23.376690+00:00", "meta": {"OBJECT_NAME": "METEOR-M2 3", "OBJECT_ID": "2023-091A", "EPOCH": "2025-12-10T22:26:17.369664", "MEAN_MOTION": 14.24025773, "ECCENTRICITY": 0.00040122, "INCLINATION": 98.638, "RA_OF_ASC_NODE": 38.5058, "ARG_OF_PERICENTER": 13.8982, "MEAN_ANOMALY": 346.2307, "EPHEMERIS_TYPE": 0, "CLASSIFICATION_TYPE": "U", "NORAD_CAT_ID": 57166, "ELEMENT_SET_NO": 999, "REV_AT_EPOCH": 12772, "BSTAR": 3.5482358e-05, "MEAN_MOTION_DOT": 3.8e-07, "MEAN_MOTION_DDOT": 0}, "tle": {"line1": "1 57166U 23091A   25344.93492326  .00000038  00000+0  35482-4 0  9992", "line2": "2 57166  98.6380  38.5058 0004012  13.8982 346.2307 14.24025773127727"}}, "geometry": {"type": "Point", "coordinates": [32.54304815438197, 35.888704501048515]}}, {"type": "Feature", "properties": {"norad_id": 57399, "name": "TIANMU-1 07", "group": "weather", "lat": 42.14461550263429, "lon": 28.523946793246942, "alt_km": 475.47783159518895, "timestamp": "2025-12-11T07:02:23.376702+00:00", "meta": {"OBJECT_NAME": "TIANMU-1 07", "OBJECT_ID": "2023-101A", "EPOCH": "2025-12-10T22:59:45.362688", "MEAN_MOTION": 15.28027801, "ECCENTRICITY": 0.00056107, "INCLINATION": 97.2878, "RA_OF_ASC_NODE": 34.8469, "ARG_OF_PERICENTER": 86.1088, "MEAN_ANOMALY": 274.0793, "EPHEMERIS_TYPE": 0, "CLASSIFICATION_TYPE": "U", "NORAD_CAT_ID": 57399, "ELEMENT_SET_NO": 999, "REV_AT_EPOCH": 13288, "BSTAR": 0.00041801844, "MEAN_MOTION_DOT": 0.00011366, "MEAN_MOTION_DDOT": 0}, "tle": {"line1": "1 57399U 23101A   25344.95816392  .00011366  00000+0  41802-3 0  9995", "line2": "2 57399  97.2878  34.8469 0005610  86.1088 274.0793 15.28027801132881"}}, "geometry": {"type": "Point", "coordinates": [28.523946793246942, 42.14461550263429]}}, {"type": "Feature", "properties": {"norad_id": 57400, "name": "TIANMU-1 08", "group": "weather", "lat": -44.21643391315507, "lon": -152.17915408048586, "alt_km": 492.3005094729542, "timestamp": "2025-12-11T07:02:23.376713+00:00", "meta": {"OBJECT_NAME": "TIANMU-1 08", "OBJECT_ID": "2023-101B", "EPOCH": "2025-12-10T22:12:07.736256", "MEAN_MOTION": 15.28010728, "ECCENTRICITY": 0.00075755, "INCLINATION": 97.2867, "RA_OF_ASC_NODE": 34.6129, "ARG_OF_PERICENTER": 88.9003, "MEAN_ANOMALY": 271.3104, "EPHEMERIS_TYPE": 0, "CLASSIFICATION_TYPE": "U", "NORAD_CAT_ID": 57400, "ELEMENT_SET_NO": 999, "REV_AT_EPOCH": 13287, "BSTAR": 0.00037790671, "MEAN_MOTION_DOT": 0.00010266, "MEAN_MOTION_DDOT": 0}, "tle": {"line1": "1 57400U 23101B   25344.92508954  .00010266  00000+0  37791-3 0  9997", "line2": "2 57400  97.2867  34.6129 0007575  88.9003 271.3104 15.28010728132877"}}, "geometry": {"type": "Point", "coordinates": [-152.17915408048586, -44.21643391315507]}}]}